,State,District,Tehsil,Pincode,Village,Status,SD Code,SD Name,SD_latitude,SD_longitude
0,Punjab,Amritsar,Baba Bakala,143116,Lola,Vacant,100370,ATWAL MAHAVITRAK,31.62982,75.07548
1,Punjab,Amritsar,Baba Bakala,143119,Bagga,Vacant,100370,ATWAL MAHAVITRAK,31.72087,75.17629
2,Punjab,Amritsar,Baba Bakala,143204,Jodhe,Vacant,100370,ATWAL MAHAVITRAK,31.56202,75.34975
3,Punjab,Amritsar,Baba Bakala,143149,Tangra,Vacant,100370,ATWAL MAHAVITRAK,31.5583,75.12535
4,Punjab,Amritsar,Baba Bakala,143111,Muchal,Vacant,100370,ATWAL MAHAVITRAK,31.56885,75.14286
5,Punjab,Amritsar,Baba Bakala,143114,Mehta,Vacant,100370,ATWAL MAHAVITRAK,31.66526,75.25115
6,Punjab,Amritsar,Baba Bakala,143112,Uppal,Vacant,100370,ATWAL MAHAVITRAK,31.53941,75.23207
7,Punjab,Amritsar,Baba Bakala,143112,Rayya,Vacant,100370,ATWAL MAHAVITRAK,31.53941,75.23207
8,Punjab,Amritsar,Baba Bakala,143201,Beas,Vacant,100370,ATWAL MAHAVITRAK,31.52602,75.27676
9,Punjab,Amritsar,Baba Bakala,143202,Lakhuwal,Vacant,100370,ATWAL MAHAVITRAK,31.55807,75.29445
10,Punjab,Amritsar,Baba Bakala,143203,Butala,Vacant,100370,ATWAL MAHAVITRAK,31.60817,75.32292
11,Punjab,Amritsar,Baba Bakala,143205,Sathiala,Vacant,100370,ATWAL MAHAVITRAK,31.5851,75.29818
12,Punjab,Amritsar,Baba Bakala,143205,Dhardeo,Vacant,100370,ATWAL MAHAVITRAK,31.61887,75.274
13,Punjab,Amritsar,Baba Bakala,143504,Dhade,Vacant,100370,ATWAL MAHAVITRAK,31.55613,75.26538
14,Punjab,Gurdaspur,Dera Baba Nanak,143513,Siray,Vacant,100370,ATWAL MAHAVITRAK,32.02739,75.02281
15,Punjab,Gurdaspur,Dera Baba Nanak,143605,Shikar,Vacant,100370,ATWAL MAHAVITRAK,31.97472,75.10231
16,Punjab,Gurdaspur,Dera Baba Nanak,143604,Pakiwan,Vacant,100370,ATWAL MAHAVITRAK,32.02739,75.02281
17,Punjab,Gurdaspur,Dera Baba Nanak,143602,Man,Vacant,100370,ATWAL MAHAVITRAK,32.01646,75.09768
18,Punjab,Gurdaspur,Dera Baba Nanak,143512,Fattupur,Vacant,100370,ATWAL MAHAVITRAK,31.98901,75.12324
19,Punjab,Gurdaspur,Dera Baba Nanak,143511,Dalam,Vacant,100370,ATWAL MAHAVITRAK,32.01847,74.99304
20,Punjab,Gurdaspur,Dhar Kalan,145029,Kot,Vacant,100370,ATWAL MAHAVITRAK,32.42804,75.85509
21,Punjab,Gurdaspur,Dhar Kalan,145029,Bharrah,Vacant,100370,ATWAL MAHAVITRAK,32.42804,75.85509
22,Punjab,Gurdaspur,Dhar Kalan,145029,Matandi,Vacant,100370,ATWAL MAHAVITRAK,32.42804,75.85509
23,Punjab,Gurdaspur,Dhar Kalan,145029,Maha,Vacant,100370,ATWAL MAHAVITRAK,32.42804,75.85509
24,Punjab,Gurdaspur,Dhar Kalan,145022,Dunera,Vacant,100370,ATWAL MAHAVITRAK,32.4443,75.88613
25,Punjab,Gurdaspur,Dhar Kalan,145022,Sarti,Vacant,100370,ATWAL MAHAVITRAK,32.42804,75.85509
26,Punjab,Gurdaspur,Dhar Kalan,145022,Hara (394),Vacant,100370,ATWAL MAHAVITRAK,32.42804,75.85509
27,Punjab,Gurdaspur,Dhar Kalan,145022,Kothi,Vacant,100370,ATWAL MAHAVITRAK,32.42804,75.85509
28,Punjab,Gurdaspur,Pathankot,143534,Baknaur,Vacant,100370,ATWAL MAHAVITRAK,32.16967,75.50568
29,Punjab,Gurdaspur,Pathankot,145024,Tharial,Vacant,100370,ATWAL MAHAVITRAK,32.27309,75.65363
30,Punjab,Gurdaspur,Pathankot,145024,Madhopur (Gurdaspur),Vacant,100370,ATWAL MAHAVITRAK,32.27309,75.65363
31,Punjab,Gurdaspur,Pathankot,145001,Hara,Vacant,100370,ATWAL MAHAVITRAK,32.27309,75.65363
32,Punjab,Gurdaspur,Pathankot,143533,Gharota,Vacant,100370,ATWAL MAHAVITRAK,32.26367,75.62133
33,Punjab,Gurdaspur,Pathankot,143533,Jharoli,Vacant,100370,ATWAL MAHAVITRAK,32.1065,75.54808
34,Punjab,Gurdaspur,Pathankot,145025,Bhoa,Vacant,100370,ATWAL MAHAVITRAK,32.22772,75.55001
35,Punjab,Gurdaspur,Pathankot,145023,Gho,Vacant,100370,ATWAL MAHAVITRAK,32.26575,75.61572
36,Punjab,Gurdaspur,Pathankot,145026,Datial,Vacant,100370,ATWAL MAHAVITRAK,32.27309,75.65363
37,Punjab,Gurdaspur,Pathankot,145026,Taloor (22),Vacant,100370,ATWAL MAHAVITRAK,32.27309,75.65363
38,Punjab,Gurdaspur,Pathankot,145026, Matore,Vacant,100370,ATWAL MAHAVITRAK,32.27309,75.65363
39,Punjab,Gurdaspur,Pathankot,176403,Damtal,Vacant,100370,ATWAL MAHAVITRAK,32.27309,75.65363
40,Punjab,Gurdaspur,Pathankot,176403,Paral,Vacant,100370,ATWAL MAHAVITRAK,32.27309,75.65363
41,Punjab,Gurdaspur,Pathankot,143531,Paniar,Vacant,100370,ATWAL MAHAVITRAK,32.15713,75.49378
42,Punjab,Gurdaspur,Pathankot,145029,Kot,Vacant,100370,ATWAL MAHAVITRAK,32.19202,75.54137
43,Punjab,Gurdaspur,Pathankot,145029,Bharrah,Vacant,100370,ATWAL MAHAVITRAK,32.27309,75.65363
44,Punjab,Gurdaspur,Pathankot,145029,Matandi,Vacant,100370,ATWAL MAHAVITRAK,32.27309,75.65363
45,Punjab,Gurdaspur,Pathankot,145029,Maha,Vacant,100370,ATWAL MAHAVITRAK,32.26731,75.61073
46,Punjab,Gurdaspur,Pathankot,145101,Nangal,Vacant,100370,ATWAL MAHAVITRAK,32.44513,75.87631
47,Punjab,Gurdaspur,Pathankot,145027,Bamial,Vacant,100370,ATWAL MAHAVITRAK,32.27309,75.65363
48,Punjab,Gurdaspur,Pathankot,145027,Janial,Vacant,100370,ATWAL MAHAVITRAK,32.27309,75.65363
49,Punjab,Gurdaspur,Pathankot,145027,Pamwal,Vacant,100370,ATWAL MAHAVITRAK,32.27309,75.65363
50,Punjab,Gurdaspur,Pathankot,145027,Gownd,Vacant,100370,ATWAL MAHAVITRAK,32.27309,75.65363
51,Punjab,Hoshiarpur,Mukerian,144214,Dhanoa,Vacant,100370,ATWAL MAHAVITRAK,31.89507,75.57695
52,Punjab,Hoshiarpur,Mukerian,144216,Talwara Township,Vacant,100370,ATWAL MAHAVITRAK,31.94398,75.87401
53,Punjab,Hoshiarpur,Mukerian,144216,Rajwal,Vacant,100370,ATWAL MAHAVITRAK,31.92276,75.90445
54,Punjab,Hoshiarpur,Mukerian,144211,Mukerian,Vacant,100370,ATWAL MAHAVITRAK,31.9507,75.61525
55,Punjab,Hoshiarpur,Mukerian,144211,Parika,Vacant,100370,ATWAL MAHAVITRAK,31.95669,75.62694
56,Punjab,Hoshiarpur,Mukerian,144223,Badla,Vacant,100370,ATWAL MAHAVITRAK,31.94609,75.78098
57,Punjab,Hoshiarpur,Mukerian,144222,Karari,Vacant,100370,ATWAL MAHAVITRAK,31.9349,75.81374
58,Punjab,Hoshiarpur,Mukerian,144306,Bhangala,Vacant,100370,ATWAL MAHAVITRAK,32.02069,75.61314
59,Punjab,Hoshiarpur,Mukerian,144306,Jandwal,Vacant,100370,ATWAL MAHAVITRAK,32.01893,75.65894
60,Punjab,Hoshiarpur,Mukerian,144205,Dasuya,Vacant,100370,ATWAL MAHAVITRAK,31.89918,75.70389
61,Punjab,Hoshiarpur,Mukerian,144221,Gera,Vacant,100370,ATWAL MAHAVITRAK,31.98028,75.77601
62,Punjab,Hoshiarpur,Mukerian,144224,Amroh,Vacant,100370,ATWAL MAHAVITRAK,31.83863,75.91291
63,Punjab,Jalandhar,Jalandhar l,144106,Manko,Vacant,100370,ATWAL MAHAVITRAK,31.43962,75.77984
64,Punjab,Jalandhar,Jalandhar l,144101,Talhan,Vacant,100370,ATWAL MAHAVITRAK,31.31641,75.6522
65,Punjab,Jalandhar,Jalandhar l,144411,Raipur,Vacant,100370,ATWAL MAHAVITRAK,31.22793,75.67606
66,Punjab,Jalandhar,Jalandhar l,144001,Fentonganj,Vacant,100370,ATWAL MAHAVITRAK,31.33186,75.5873
67,Punjab,Jalandhar,Jalandhar l,144001,N R Colony,Vacant,100370,ATWAL MAHAVITRAK,38.89037,-77.03196
68,Punjab,Jalandhar,Jalandhar l,144008,Bhagat Bazar ,Vacant,100370,ATWAL MAHAVITRAK,31.30684,75.57933
69,Punjab,Jalandhar,Jalandhar l,144008,Bikrampura,Vacant,100370,ATWAL MAHAVITRAK,31.33771,75.57854
70,Punjab,Jalandhar,Jalandhar l,144303,Sadana,Vacant,100370,ATWAL MAHAVITRAK,31.35016,75.59805
71,Punjab,Jalandhar,Jalandhar l,144009,Chogitti ,Vacant,100370,ATWAL MAHAVITRAK,31.32453,75.61918
72,Punjab,Jalandhar,Jalandhar l,144009,Regional Campus GNDU,Vacant,100370,ATWAL MAHAVITRAK,31.3287,75.62175
73,Punjab,Jalandhar,Jalandhar l,144025,Madar,Vacant,100370,ATWAL MAHAVITRAK,31.34902,75.59958
74,Punjab,Jalandhar,Jalandhar l,144020,"Jamsher, Udhopur",Vacant,100370,ATWAL MAHAVITRAK,31.26998,75.59405
75,Punjab,Jalandhar,Jalandhar l,144301,Naugajja,Vacant,100370,ATWAL MAHAVITRAK,31.34902,75.59958
76,Punjab,Jalandhar,Jalandhar l,144026,Lambra ,Vacant,100370,ATWAL MAHAVITRAK,31.28779,75.5561
77,Punjab,Jalandhar,Jalandhar l,144026,Tajpur,Vacant,100370,ATWAL MAHAVITRAK,31.33081,75.59003
78,Punjab,Jalandhar,Jalandhar l,144007,Ladhewali,Vacant,100370,ATWAL MAHAVITRAK,31.32506,75.62806
79,Punjab,Jalandhar,Jalandhar l,144302,Duhre ,Vacant,100370,ATWAL MAHAVITRAK,31.46171,75.67692
80,Punjab,Jalandhar,Jalandhar l,144302,Beas Pind,Vacant,100370,ATWAL MAHAVITRAK,31.45827,75.64839
81,Punjab,Jalandhar,Jalandhar l,144003,Wadala,Vacant,100370,ATWAL MAHAVITRAK,31.2941,75.54423
82,Punjab,Jalandhar,Jalandhar l,144104,Daroli Kalan ,Vacant,100370,ATWAL MAHAVITRAK,31.41122,75.78268
83,Punjab,Jalandhar,Jalandhar l,144104,Daroli Khurd,Vacant,100370,ATWAL MAHAVITRAK,31.33081,75.59003
84,Punjab,Jalandhar,Jalandhar l,144010,Dhanowali,Vacant,100370,ATWAL MAHAVITRAK,31.30039,75.65099
85,Punjab,Jalandhar,Jalandhar l,144023,Dakoha,Vacant,100370,ATWAL MAHAVITRAK,31.30923,75.64227
86,Punjab,Jalandhar,Jalandhar l,144024,Sofi Pind,Vacant,100370,ATWAL MAHAVITRAK,31.27121,75.63947
87,Punjab,Jalandhar,Jalandhar l,144103,Kandola,Vacant,100370,ATWAL MAHAVITRAK,31.42102,75.75461
88,Punjab,Jalandhar,Jalandhar l,144022,Mithapur,Vacant,100370,ATWAL MAHAVITRAK,31.28595,75.58344
89,Punjab,Jalandhar,Jalandhar l,144005,Rama Mandi,Vacant,100370,ATWAL MAHAVITRAK,31.31628,75.62662
90,Punjab,Jalandhar,Jalandhar l,144030,Padhiana ,Vacant,100370,ATWAL MAHAVITRAK,31.39249,75.79391
91,Punjab,Jalandhar,Jalandhar l,144030,Kalra,Vacant,100370,ATWAL MAHAVITRAK,31.33081,75.59003
92,Punjab,Jalandhar,Jalandhar l,144011,R.E.C. Jalandhar,Vacant,100370,ATWAL MAHAVITRAK,31.39419,75.53764
93,Punjab,Jalandhar,Jalandhar l,144006,BSF Campus,Vacant,100370,ATWAL MAHAVITRAK,31.31105,75.60625
94,Punjab,Jalandhar,Jalandhar l,144102,Ucha,Vacant,100370,ATWAL MAHAVITRAK,31.31479,75.66222
95,Punjab,Jalandhar,Jalandhar ll,144806,Pattar Kalan ,Vacant,100370,ATWAL MAHAVITRAK,31.35982,75.57358
96,Punjab,Jalandhar,Jalandhar ll,144806,Khusropur,Vacant,100370,ATWAL MAHAVITRAK,31.27499,75.65551
97,Punjab,Jalandhar,Jalandhar ll,144603,Ibban,Vacant,100370,ATWAL MAHAVITRAK,31.35016,75.59805
98,Punjab,Jalandhar,Jalandhar ll,144013,Nagra (Jalandhar),Vacant,100370,ATWAL MAHAVITRAK,31.35052,75.54246
99,Punjab,Jalandhar,Jalandhar ll,144021,Mand,Vacant,100370,ATWAL MAHAVITRAK,31.3322,75.51005
100,Punjab,Jalandhar,Jalandhar ll,144802,Ramidi,Vacant,100370,ATWAL MAHAVITRAK,31.33081,75.59003
101,Punjab,Jalandhar,Jalandhar ll,144201,Laroi,Vacant,100370,ATWAL MAHAVITRAK,31.5614,75.62791
102,Punjab,Jalandhar,Jalandhar ll,144012,Bal,Vacant,100370,ATWAL MAHAVITRAK,31.35628,75.59172
103,Punjab,Jalandhar,Jalandhar ll,144012,Reru,Vacant,100370,ATWAL MAHAVITRAK,31.36299,75.5903
104,Punjab,Jalandhar,Jalandhar ll,144623,Uggi,Vacant,100370,ATWAL MAHAVITRAK,31.35016,75.59805
105,Punjab,Jalandhar,Jalandhar ll,144001,Fentonganj,Vacant,100370,ATWAL MAHAVITRAK,31.33186,75.5873
106,Punjab,Jalandhar,Jalandhar ll,144001, N R Colony,Vacant,100370,ATWAL MAHAVITRAK,38.89037,-77.03196
107,Punjab,Jalandhar,Jalandhar ll,144801,Rahimpur ,Vacant,100370,ATWAL MAHAVITRAK,31.34902,75.59958
108,Punjab,Jalandhar,Jalandhar ll,144801,Kartarpur,Vacant,100370,ATWAL MAHAVITRAK,31.43731,75.49821
109,Punjab,Jalandhar,Jalandhar ll,144008,Bhagat Bazar,Vacant,100370,ATWAL MAHAVITRAK,31.30684,75.57933
110,Punjab,Jalandhar,Jalandhar ll,144008,Bikrampura,Vacant,100370,ATWAL MAHAVITRAK,31.33771,75.57854
111,Punjab,Jalandhar,Jalandhar ll,144803,Kudowal ,Vacant,100370,ATWAL MAHAVITRAK,31.35016,75.59805
112,Punjab,Jalandhar,Jalandhar ll,144803,Dialpur,Vacant,100370,ATWAL MAHAVITRAK,31.35016,75.59805
113,Punjab,Jalandhar,Jalandhar ll,144303,Sadana,Vacant,100370,ATWAL MAHAVITRAK,31.35016,75.59805
114,Punjab,Jalandhar,Jalandhar ll,144015,Jalandhar,Vacant,100370,ATWAL MAHAVITRAK,31.28805,75.60626
115,Punjab,Jalandhar,Jalandhar ll,144805,Kahlwan,Vacant,100370,ATWAL MAHAVITRAK,31.34902,75.59958
116,Punjab,Jalandhar,Jalandhar ll,144025,Madar,Vacant,100370,ATWAL MAHAVITRAK,31.34902,75.59958
117,Punjab,Jalandhar,Jalandhar ll,144002,Kohala,Vacant,100370,ATWAL MAHAVITRAK,31.33531,75.55665
118,Punjab,Jalandhar,Jalandhar ll,144301,Naugajja,Vacant,100370,ATWAL MAHAVITRAK,31.34902,75.59958
119,Punjab,Jalandhar,Jalandhar ll,144026,Lambra,Vacant,100370,ATWAL MAHAVITRAK,31.28779,75.5561
120,Punjab,Jalandhar,Jalandhar ll,144026,Tajpur,Vacant,100370,ATWAL MAHAVITRAK,31.33081,75.59003
121,Punjab,Jalandhar,Jalandhar ll,144601,Kapurthala,Vacant,100370,ATWAL MAHAVITRAK,31.37229,75.40177
122,Punjab,Jalandhar,Jalandhar ll,144601,Kapurthala Town,Vacant,100370,ATWAL MAHAVITRAK,31.33552,75.55546
123,Punjab,Jalandhar,Jalandhar ll,144027,Suranussi,Vacant,100370,ATWAL MAHAVITRAK,31.37297,75.53727
124,Punjab,Jalandhar,Jalandhar ll,144003,Wadala,Vacant,100370,ATWAL MAHAVITRAK,31.2941,75.54423
125,Punjab,Jalandhar,Jalandhar ll,144028,Chitti,Vacant,100370,ATWAL MAHAVITRAK,31.33081,75.59003
126,Punjab,Jalandhar,Jalandhar ll,144622,Butter,Vacant,100370,ATWAL MAHAVITRAK,31.40418,75.5246
127,Punjab,Jalandhar,Jalandhar ll,144004,Nussi,Vacant,100370,ATWAL MAHAVITRAK,31.38418,75.56619
128,Punjab,Jalandhar,Jalandhar ll,144011,R.E.C. Jalandhar,Vacant,100370,ATWAL MAHAVITRAK,31.39419,75.53764
129,Punjab,Jalandhar,Jalandhar ll,144014,Tower Town Colony,Vacant,100370,ATWAL MAHAVITRAK,31.28947,75.55684
130,Punjab,Jalandhar,Jalandhar ll,144102,Ucha,Vacant,100370,ATWAL MAHAVITRAK,31.31479,75.66222
131,Punjab,Kapurthala,Bhulath,144624,Nadala,Vacant,100370,ATWAL MAHAVITRAK,31.54702,75.42891
132,Punjab,Kapurthala,Bhulath,144802,Ramidi,Vacant,100370,ATWAL MAHAVITRAK,31.47622,75.39533
133,Punjab,Kapurthala,Bhulath,144803,Kudowal ,Vacant,100370,ATWAL MAHAVITRAK,31.54139,75.50691
134,Punjab,Kapurthala,Bhulath,144803,Dialpur,Vacant,100370,ATWAL MAHAVITRAK,31.45651,75.45743
135,Punjab,Kapurthala,Bhulath,144303,Sadana,Vacant,100370,ATWAL MAHAVITRAK,31.54139,75.50691
136,Punjab,Kapurthala,Bhulath,144621,Jaid,Vacant,100370,ATWAL MAHAVITRAK,31.58111,75.5973
137,Punjab,Kapurthala,Bhulath,144819,Maqsoodpur,Vacant,100370,ATWAL MAHAVITRAK,31.58537,75.49163
138,Punjab,Kapurthala,Bhulath,144631,Nangal Lubana,Vacant,100370,ATWAL MAHAVITRAK,31.60914,75.47076
139,Punjab,Kapurthala,Bhulath,144622,Butter,Vacant,100370,ATWAL MAHAVITRAK,31.54139,75.50691
